[{"OBJECT_NAME":"GOES 18","OBJECT_ID":"2022-021A","EPOCH":"2026-04-05T17:13:40.422144","MEAN_MOTION":1.00270694,"ECCENTRICITY":6.31e-5,"INCLINATION":0.0479,"RA_OF_ASC_NODE":40.6556,"ARG_OF_PERICENTER":33.1922,"MEAN_ANOMALY":241.5875,"EPHEMERIS_TYPE":0,"CLASSIFICATION_TYPE":"U","NORAD_CAT_ID":51850,"ELEMENT_SET_NO":999,"REV_AT_EPOCH":586,"BSTAR":0,"MEAN_MOTION_DOT":9.8e-7,"MEAN_MOTION_DDOT":0},{"OBJECT_NAME":"GOES 19","OBJECT_ID":"2024-119A","EPOCH":"2026-04-05T19:13:58.846656","MEAN_MOTION":1.00271085,"ECCENTRICITY":9.75e-5,"INCLINATION":0.0442,"RA_OF_ASC_NODE":41.6631,"ARG_OF_PERICENTER":16.5716,"MEAN_ANOMALY":349.1621,"EPHEMERIS_TYPE":0,"CLASSIFICATION_TYPE":"U","NORAD_CAT_ID":60133,"ELEMENT_SET_NO":999,"REV_AT_EPOCH":623,"BSTAR":0,"MEAN_MOTION_DOT":-2.47e-6,"MEAN_MOTION_DDOT":0}]
